HELIOS 2A               
1 28492U 04049A   22290.81405686  .00002678  00000+0  26015-3 0  9994
2 28492  98.2450 239.6265 0015158  44.3497 315.8958 14.93456204953384
CFESAT                  
1 30777U 07006F   22291.15208749  .00308774  00000+0  13597-2 0  9994
2 30777  35.4117 198.8876 0008576 254.3270 105.6525 15.82670798868327
SPIRALE A               
1 33751U 09008C   22290.61891975  .00000200  00000+0  71358-3 0  9995
2 33751   1.9876 138.1753 5450649 117.6984 307.4745  4.58876159200420
SPIRALE B               
1 33752U 09008D   22291.25014777  .00002174  00000+0  78265-3 0  9990
2 33752   2.2268  49.6063 6847048 283.2137  13.9454  2.83249246128606
SAPPHIRE                
1 39088U 13009C   22291.12401023  .00000114  00000+0  55638-4 0  9996
2 39088  98.4217 123.7983 0010236 272.7321  87.2693 14.34332583504729
